ALOS-2                  
1 39766U 14029A   17346.46281890 -.00000161  00000-0 -14684-4 0  9993
2 39766  97.9228  81.2381 0001631  80.8100 279.3282 14.79469991191969
